LEMUR-1                 
1 40044U 14033AL  26061.89948769  .00003271  00000+0  38359-3 0  9991
2 40044  97.7698 214.1930 0049843  67.6992 292.9496 14.84754513629692
LEMUR-2-GREENBERG       
1 42837U 17042N   26061.91250525  .00021065  00000+0  77959-3 0  9995
2 42837  97.3761 243.3188 0009501  26.9969 333.1763 15.27658267472147
LEMUR-2-ANDIS           
1 42838U 17042P   26061.56305751  .00025783  00000+0  88316-3 0  9999
2 42838  97.3646 242.8552 0009532  28.5723 331.6038 15.30149495472127
LEMUR-2-MONSON          
1 42839U 17042Q   26061.96535278  .00018895  00000+0  76492-3 0  9991
2 42839  97.4017 243.4809 0006957  16.1654 343.9805 15.24711763471962
LEMUR-2-FURIAUS         
1 42840U 17042R   26061.94538897  .00027193  00000+0  10619-2 0  9990
2 42840  97.3735 241.5769 0007626  80.8015 279.4086 15.25837479471987
LEMUR-2-PETERG          
1 42841U 17042S   26061.93979099  .00023084  00000+0  81387-3 0  9999
2 42841  97.3963 247.1508 0003997   4.7050 355.4227 15.29267884472170
LEMUR-2-DEMBITZ         
1 42842U 17042T   26061.92100696  .00021765  00000+0  83127-3 0  9996
2 42842  97.3791 244.4456 0007217  39.6825 320.4941 15.26626062472111
LEMUR-2-ZACHARY         
1 42845U 17042W   26061.90211220  .00047399  00000+0  11336-2 0  9996
2 42845  97.3649 251.9337 0003752  42.7474 317.4065 15.41324709472788
LEMUR-2-JIN-LUEN        
1 43182U 18014C   26061.74827622  .00224550  00000+0  14377-2 0  9996
2 43182  97.5453 351.3973 0001707  93.9946 266.1514 15.75656413444379
LEMUR-2-KADI            
1 43184U 18014E   26061.75617229  .00098912  00000+0  10984-2 0  9990
2 43184  97.4722 346.0306 0001246  42.6680 317.4675 15.62593856444302
LEMUR-2-AMANDA-SVANTE   
1 48269U 21034B   26061.77024716  .00029345  00000+0  10752-2 0  9997
2 48269  97.5850 137.7305 0002038 228.3981 131.7084 15.27961909264776
LEMUR-2-SPECIAL-K       
1 48273U 21034F   26061.78531541  .00069085  00000+0  14973-2 0  9996
2 48273  97.5733 142.8051 0001365 222.4012 137.7131 15.44178488265173
LEMUR-2-EMBRIONOVIS     
1 56970U 23084AQ  26061.95480783  .00009224  00000+0  27818-3 0  9998
2 56970  97.6116 202.4210 0008664 338.8061  21.2821 15.34499109151371
LEMUR-2-MANO            
1 57390U 23100E   26061.96463555  .00139140  00000+0  17822-2 0  9997
2 57390  99.4558  82.2798 0002571  60.6909 299.4597 15.58694395145434
LEMUR-2-DEVERILL-M-T    
1 57391U 23100F   26061.99927921  .00031581  00000+0  95063-3 0  9997
2 57391  99.4573  70.5637 0008784  48.1198 312.0787 15.34281705144935
LEMUR-2-BASS            
1 58259U 23174D   26061.74062167  .00019950  00000+0  50999-3 0  9992
2 58259  97.3899 145.2404 0007873 185.8810 174.2344 15.39453855128961
