[{"OBJECT_NAME":"LEMUR-1","OBJECT_ID":"2014-033AL","EPOCH":"2026-03-02T21:35:15.736416","MEAN_MOTION":14.84754513,"ECCENTRICITY":0.00498437,"INCLINATION":97.7698,"RA_OF_ASC_NODE":214.193,"ARG_OF_PERICENTER":67.6992,"MEAN_ANOMALY":292.9496,"EPHEMERIS_TYPE":0,"CLASSIFICATION_TYPE":"U","NORAD_CAT_ID":40044,"ELEMENT_SET_NO":999,"REV_AT_EPOCH":62969,"BSTAR":0.00038358689,"MEAN_MOTION_DOT":3.271e-5,"MEAN_MOTION_DDOT":0},{"OBJECT_NAME":"LEMUR-2-GREENBERG","OBJECT_ID":"2017-042N","EPOCH":"2026-03-02T21:54:00.453600","MEAN_MOTION":15.27658267,"ECCENTRICITY":0.00095013,"INCLINATION":97.3761,"RA_OF_ASC_NODE":243.3188,"ARG_OF_PERICENTER":26.9969,"MEAN_ANOMALY":333.1763,"EPHEMERIS_TYPE":0,"CLASSIFICATION_TYPE":"U","NORAD_CAT_ID":42837,"ELEMENT_SET_NO":999,"REV_AT_EPOCH":47214,"BSTAR":0.00077958558,"MEAN_MOTION_DOT":0.00021065,"MEAN_MOTION_DDOT":0},{"OBJECT_NAME":"LEMUR-2-ANDIS","OBJECT_ID":"2017-042P","EPOCH":"2026-03-02T13:30:48.168864","MEAN_MOTION":15.30149495,"ECCENTRICITY":0.0009532,"INCLINATION":97.3646,"RA_OF_ASC_NODE":242.8552,"ARG_OF_PERICENTER":28.5723,"MEAN_ANOMALY":331.6038,"EPHEMERIS_TYPE":0,"CLASSIFICATION_TYPE":"U","NORAD_CAT_ID":42838,"ELEMENT_SET_NO":999,"REV_AT_EPOCH":47212,"BSTAR":0.00088316,"MEAN_MOTION_DOT":0.00025783,"MEAN_MOTION_DDOT":0},{"OBJECT_NAME":"LEMUR-2-MONSON","OBJECT_ID":"2017-042Q","EPOCH":"2026-03-02T23:10:06.480192","MEAN_MOTION":15.24711763,"ECCENTRICITY":0.00069578,"INCLINATION":97.4017,"RA_OF_ASC_NODE":243.4809,"ARG_OF_PERICENTER":16.1654,"MEAN_ANOMALY":343.9805,"EPHEMERIS_TYPE":0,"CLASSIFICATION_TYPE":"U","NORAD_CAT_ID":42839,"ELEMENT_SET_NO":999,"REV_AT_EPOCH":47196,"BSTAR":0.00076491898,"MEAN_MOTION_DOT":0.00018895,"MEAN_MOTION_DDOT":0},{"OBJECT_NAME":"LEMUR-2-FURIAUS","OBJECT_ID":"2017-042R","EPOCH":"2026-03-02T22:41:21.607008","MEAN_MOTION":15.25837479,"ECCENTRICITY":0.00076267,"INCLINATION":97.3735,"RA_OF_ASC_NODE":241.5769,"ARG_OF_PERICENTER":80.8015,"MEAN_ANOMALY":279.4086,"EPHEMERIS_TYPE":0,"CLASSIFICATION_TYPE":"U","NORAD_CAT_ID":42840,"ELEMENT_SET_NO":999,"REV_AT_EPOCH":47198,"BSTAR":0.0010619009,"MEAN_MOTION_DOT":0.00027193,"MEAN_MOTION_DDOT":0},{"OBJECT_NAME":"LEMUR-2-PETERG","OBJECT_ID":"2017-042S","EPOCH":"2026-03-02T22:33:17.941536","MEAN_MOTION":15.29267884,"ECCENTRICITY":0.00039972,"INCLINATION":97.3963,"RA_OF_ASC_NODE":247.1508,"ARG_OF_PERICENTER":4.705,"MEAN_ANOMALY":355.4227,"EPHEMERIS_TYPE":0,"CLASSIFICATION_TYPE":"U","NORAD_CAT_ID":42841,"ELEMENT_SET_NO":999,"REV_AT_EPOCH":47217,"BSTAR":0.00081386632,"MEAN_MOTION_DOT":0.00023084,"MEAN_MOTION_DDOT":0},{"OBJECT_NAME":"LEMUR-2-DEMBITZ","OBJECT_ID":"2017-042T","EPOCH":"2026-03-02T22:06:15.001344","MEAN_MOTION":15.26626062,"ECCENTRICITY":0.00072171,"INCLINATION":97.3791,"RA_OF_ASC_NODE":244.4456,"ARG_OF_PERICENTER":39.6825,"MEAN_ANOMALY":320.4941,"EPHEMERIS_TYPE":0,"CLASSIFICATION_TYPE":"U","NORAD_CAT_ID":42842,"ELEMENT_SET_NO":999,"REV_AT_EPOCH":47211,"BSTAR":0.00083126969,"MEAN_MOTION_DOT":0.00021765,"MEAN_MOTION_DDOT":0},{"OBJECT_NAME":"LEMUR-2-ZACHARY","OBJECT_ID":"2017-042W","EPOCH":"2026-03-02T21:39:02.494080","MEAN_MOTION":15.41324709,"ECCENTRICITY":0.00037529,"INCLINATION":97.3649,"RA_OF_ASC_NODE":251.9337,"ARG_OF_PERICENTER":42.7474,"MEAN_ANOMALY":317.4065,"EPHEMERIS_TYPE":0,"CLASSIFICATION_TYPE":"U","NORAD_CAT_ID":42845,"ELEMENT_SET_NO":999,"REV_AT_EPOCH":47278,"BSTAR":0.0011335561,"MEAN_MOTION_DOT":0.00047399,"MEAN_MOTION_DDOT":0},{"OBJECT_NAME":"LEMUR-2-JIN-LUEN","OBJECT_ID":"2018-014C","EPOCH":"2026-03-02T17:57:31.065408","MEAN_MOTION":15.75656413,"ECCENTRICITY":0.00017078,"INCLINATION":97.5453,"RA_OF_ASC_NODE":351.3973,"ARG_OF_PERICENTER":93.9946,"MEAN_ANOMALY":266.1514,"EPHEMERIS_TYPE":0,"CLASSIFICATION_TYPE":"U","NORAD_CAT_ID":43182,"ELEMENT_SET_NO":999,"REV_AT_EPOCH":44437,"BSTAR":0.0014376613,"MEAN_MOTION_DOT":0.0022455,"MEAN_MOTION_DDOT":0},{"OBJECT_NAME":"LEMUR-2-KADI","OBJECT_ID":"2018-014E","EPOCH":"2026-03-02T18:08:53.285856","MEAN_MOTION":15.62593856,"ECCENTRICITY":0.00012465,"INCLINATION":97.4722,"RA_OF_ASC_NODE":346.0306,"ARG_OF_PERICENTER":42.668,"MEAN_ANOMALY":317.4675,"EPHEMERIS_TYPE":0,"CLASSIFICATION_TYPE":"U","NORAD_CAT_ID":43184,"ELEMENT_SET_NO":999,"REV_AT_EPOCH":44430,"BSTAR":0.001098381,"MEAN_MOTION_DOT":0.00098912,"MEAN_MOTION_DDOT":0},{"OBJECT_NAME":"LEMUR-2-AMANDA-SVANTE","OBJECT_ID":"2021-034B","EPOCH":"2026-03-02T18:29:09.354624","MEAN_MOTION":15.27961909,"ECCENTRICITY":0.00020386,"INCLINATION":97.585,"RA_OF_ASC_NODE":137.7305,"ARG_OF_PERICENTER":228.3981,"MEAN_ANOMALY":131.7084,"EPHEMERIS_TYPE":0,"CLASSIFICATION_TYPE":"U","NORAD_CAT_ID":48269,"ELEMENT_SET_NO":999,"REV_AT_EPOCH":26477,"BSTAR":0.0010751682,"MEAN_MOTION_DOT":0.00029345,"MEAN_MOTION_DDOT":0},{"OBJECT_NAME":"LEMUR-2-SPECIAL-K","OBJECT_ID":"2021-034F","EPOCH":"2026-03-02T18:50:51.251424","MEAN_MOTION":15.44178488,"ECCENTRICITY":0.00013656,"INCLINATION":97.5733,"RA_OF_ASC_NODE":142.8051,"ARG_OF_PERICENTER":222.4012,"MEAN_ANOMALY":137.7131,"EPHEMERIS_TYPE":0,"CLASSIFICATION_TYPE":"U","NORAD_CAT_ID":48273,"ELEMENT_SET_NO":999,"REV_AT_EPOCH":26517,"BSTAR":0.0014972785,"MEAN_MOTION_DOT":0.00069085,"MEAN_MOTION_DDOT":0},{"OBJECT_NAME":"LEMUR-2-EMBRIONOVIS","OBJECT_ID":"2023-084AQ","EPOCH":"2026-03-02T22:54:55.396512","MEAN_MOTION":15.34499109,"ECCENTRICITY":0.00086642,"INCLINATION":97.6116,"RA_OF_ASC_NODE":202.421,"ARG_OF_PERICENTER":338.8061,"MEAN_ANOMALY":21.2821,"EPHEMERIS_TYPE":0,"CLASSIFICATION_TYPE":"U","NORAD_CAT_ID":56970,"ELEMENT_SET_NO":999,"REV_AT_EPOCH":15137,"BSTAR":0.00027817526,"MEAN_MOTION_DOT":9.224e-5,"MEAN_MOTION_DDOT":0},{"OBJECT_NAME":"LEMUR-2-MANO","OBJECT_ID":"2023-100E","EPOCH":"2026-03-02T23:09:04.511520","MEAN_MOTION":15.58694395,"ECCENTRICITY":0.0002571,"INCLINATION":99.4558,"RA_OF_ASC_NODE":82.2798,"ARG_OF_PERICENTER":60.6909,"MEAN_ANOMALY":299.4597,"EPHEMERIS_TYPE":0,"CLASSIFICATION_TYPE":"U","NORAD_CAT_ID":57390,"ELEMENT_SET_NO":999,"REV_AT_EPOCH":14543,"BSTAR":0.0017822213,"MEAN_MOTION_DOT":0.0013914,"MEAN_MOTION_DDOT":0},{"OBJECT_NAME":"LEMUR-2-DEVERILL-M-T","OBJECT_ID":"2023-100F","EPOCH":"2026-03-02T23:58:57.723744","MEAN_MOTION":15.34281705,"ECCENTRICITY":0.00087846,"INCLINATION":99.4573,"RA_OF_ASC_NODE":70.5637,"ARG_OF_PERICENTER":48.1198,"MEAN_ANOMALY":312.0787,"EPHEMERIS_TYPE":0,"CLASSIFICATION_TYPE":"U","NORAD_CAT_ID":57391,"ELEMENT_SET_NO":999,"REV_AT_EPOCH":14493,"BSTAR":0.00095062719,"MEAN_MOTION_DOT":0.00031581,"MEAN_MOTION_DDOT":0},{"OBJECT_NAME":"LEMUR-2-BASS","OBJECT_ID":"2023-174D","EPOCH":"2026-03-02T17:46:29.712288","MEAN_MOTION":15.39453855,"ECCENTRICITY":0.00078731,"INCLINATION":97.3899,"RA_OF_ASC_NODE":145.2404,"ARG_OF_PERICENTER":185.881,"MEAN_ANOMALY":174.2344,"EPHEMERIS_TYPE":0,"CLASSIFICATION_TYPE":"U","NORAD_CAT_ID":58259,"ELEMENT_SET_NO":999,"REV_AT_EPOCH":12896,"BSTAR":0.00050998732,"MEAN_MOTION_DOT":0.0001995,"MEAN_MOTION_DDOT":0}]
